{
  "type": "FeatureCollection",
  "features": [
    {
      "type": "Feature",
      "properties": {
        "norad_id": 33860,
        "name": "IRIDIUM 33 DEB",
        "group": "iridium-33-debris",
        "lat": 17.86079182236711,
        "lon": -153.11767912529623,
        "alt_km": 675.1746587222697,
        "timestamp": "2025-12-10T21:43:22.475619+00:00",
        "meta_object_name": "IRIDIUM 33 DEB",
        "meta_object_id": "1997-051AD",
        "meta_epoch": "2025-12-10T09:47:56.154048",
        "meta_mean_motion": 14.67318543,
        "meta_eccentricity": 0.00077556,
        "meta_inclination": 86.3835,
        "meta_ra_of_asc_node": 28.2699,
        "meta_arg_of_pericenter": 6.0738,
        "meta_mean_anomaly": 53.1424,
        "meta_ephemeris_type": 0,
        "meta_classification_type": "U",
        "meta_norad_cat_id": 33860,
        "meta_element_set_no": 999,
        "meta_rev_at_epoch": 88688,
        "meta_bstar": 0.0017973953,
        "meta_mean_motion_dot": 0.00010173,
        "meta_mean_motion_ddot": 0,
        "tle_line1": "1 33860U 97051AD  25344.40828882  .00010173  00000+0  17974-2 0  9991",
        "tle_line2": "2 33860  86.3835  28.2699 0007755   6.0738  53.1424 14.67318543886888"
      },
      "geometry": {
        "type": "Point",
        "coordinates": [
          -153.11767912529623,
          17.86079182236711
        ]
      }
    },
    {
      "type": "Feature",
      "properties": {
        "norad_id": 33862,
        "name": "IRIDIUM 33 DEB",
        "group": "iridium-33-debris",
        "lat": -4.063658157926009,
        "lon": -141.40537723722508,
        "alt_km": 678.4233758539012,
        "timestamp": "2025-12-10T21:43:22.475630+00:00",
        "meta_object_name": "IRIDIUM 33 DEB",
        "meta_object_id": "1997-051AF",
        "meta_epoch": "2025-12-10T15:04:48.341856",
        "meta_mean_motion": 14.69416513,
        "meta_eccentricity": 0.00536404,
        "meta_inclination": 86.4089,
        "meta_ra_of_asc_node": 38.461,
        "meta_arg_of_pericenter": 76.255,
        "meta_mean_anomaly": 83.9048,
        "meta_ephemeris_type": 0,
        "meta_classification_type": "U",
        "meta_norad_cat_id": 33862,
        "meta_element_set_no": 999,
        "meta_rev_at_epoch": 88792,
        "meta_bstar": 0.0020287642,
        "meta_mean_motion_dot": 0.00012304,
        "meta_mean_motion_ddot": 0,
        "tle_line1": "1 33862U 97051AF  25344.62833729  .00012304  00000+0  20288-2 0  9993",
        "tle_line2": "2 33862  86.4089  38.4610 0053640  76.2550  83.9048 14.69416513887920"
      },
      "geometry": {
        "type": "Point",
        "coordinates": [
          -141.40537723722508,
          -4.063658157926009
        ]
      }
    },
    {
      "type": "Feature",
      "properties": {
        "norad_id": 33866,
        "name": "IRIDIUM 33 DEB",
        "group": "iridium-33-debris",
        "lat": -0.42486747111142203,
        "lon": -86.16083703626906,
        "alt_km": 730.6188487437857,
        "timestamp": "2025-12-10T21:43:22.475642+00:00",
        "meta_object_name": "IRIDIUM 33 DEB",
        "meta_object_id": "1997-051AK",
        "meta_epoch": "2025-12-10T14:12:58.238208",
        "meta_mean_motion": 14.25263648,
        "meta_eccentricity": 0.0114315,
        "meta_inclination": 86.2998,
        "meta_ra_of_asc_node": 93.944,
        "meta_arg_of_pericenter": 168.2247,
        "meta_mean_anomaly": 207.9302,
        "meta_ephemeris_type": 0,
        "meta_classification_type": "U",
        "meta_norad_cat_id": 33866,
        "meta_element_set_no": 999,
        "meta_rev_at_epoch": 86780,
        "meta_bstar": 0.001135173,
        "meta_mean_motion_dot": 2.877e-05,
        "meta_mean_motion_ddot": 0,
        "tle_line1": "1 33866U 97051AK  25344.59234072  .00002877  00000+0  11352-2 0  9995",
        "tle_line2": "2 33866  86.2998  93.9440 0114315 168.2247 207.9302 14.25263648867807"
      },
      "geometry": {
        "type": "Point",
        "coordinates": [
          -86.16083703626906,
          -0.42486747111142203
        ]
      }
    },
    {
      "type": "Feature",
      "properties": {
        "norad_id": 33867,
        "name": "IRIDIUM 33 DEB",
        "group": "iridium-33-debris",
        "lat": 5.70934341853064,
        "lon": -8.579564900653457,
        "alt_km": 377.2056481055115,
        "timestamp": "2025-12-10T21:43:22.475653+00:00",
        "meta_object_name": "IRIDIUM 33 DEB",
        "meta_object_id": "1997-051AL",
        "meta_epoch": "2025-12-10T10:56:50.694720",
        "meta_mean_motion": 15.63354376,
        "meta_eccentricity": 0.00131668,
        "meta_inclination": 86.364,
        "meta_ra_of_asc_node": 351.2878,
        "meta_arg_of_pericenter": 91.1844,
        "meta_mean_anomaly": 269.0932,
        "meta_ephemeris_type": 0,
        "meta_classification_type": "U",
        "meta_norad_cat_id": 33867,
        "meta_element_set_no": 999,
        "meta_rev_at_epoch": 89475,
        "meta_bstar": 0.0092111059,
        "meta_mean_motion_dot": 0.00931891,
        "meta_mean_motion_ddot": 0,
        "tle_line1": "1 33867U 97051AL  25344.45614230  .00931891  00000+0  92111-2 0  9998",
        "tle_line2": "2 33867  86.3640 351.2878 0013166  91.1844 269.0932 15.63354376894751"
      },
      "geometry": {
        "type": "Point",
        "coordinates": [
          -8.579564900653457,
          5.70934341853064
        ]
      }
    },
    {
      "type": "Feature",
      "properties": {
        "norad_id": 33870,
        "name": "IRIDIUM 33 DEB",
        "group": "iridium-33-debris",
        "lat": 36.89973705126403,
        "lon": -123.68160690918512,
        "alt_km": 725.3536596149943,
        "timestamp": "2025-12-10T21:43:22.475664+00:00",
        "meta_object_name": "IRIDIUM 33 DEB",
        "meta_object_id": "1997-051AP",
        "meta_epoch": "2025-12-10T06:24:18.912384",
        "meta_mean_motion": 14.45830234,
        "meta_eccentricity": 0.0021205,
        "meta_inclination": 86.3744,
        "meta_ra_of_asc_node": 59.3205,
        "meta_arg_of_pericenter": 186.1349,
        "meta_mean_anomaly": 237.0541,
        "meta_ephemeris_type": 0,
        "meta_classification_type": "U",
        "meta_norad_cat_id": 33870,
        "meta_element_set_no": 999,
        "meta_rev_at_epoch": 88101,
        "meta_bstar": 0.0012181,
        "meta_mean_motion_dot": 4.353e-05,
        "meta_mean_motion_ddot": 0,
        "tle_line1": "1 33870U 97051AP  25344.26688556  .00004353  00000+0  12181-2 0  9996",
        "tle_line2": "2 33870  86.3744  59.3205 0021205 186.1349 237.0541 14.45830234881015"
      },
      "geometry": {
        "type": "Point",
        "coordinates": [
          -123.68160690918512,
          36.89973705126403
        ]
      }
    },
    {
      "type": "Feature",
      "properties": {
        "norad_id": 33881,
        "name": "IRIDIUM 33 DEB",
        "group": "iridium-33-debris",
        "lat": -58.53787963164178,
        "lon": 101.61151796294544,
        "alt_km": 733.7673184346131,
        "timestamp": "2025-12-10T21:43:22.475681+00:00",
        "meta_object_name": "IRIDIUM 33 DEB",
        "meta_object_id": "1997-051BA",
        "meta_epoch": "2025-12-10T09:03:19.668672",
        "meta_mean_motion": 14.56501004,
        "meta_eccentricity": 0.00614455,
        "meta_inclination": 86.3864,
        "meta_ra_of_asc_node": 107.7688,
        "meta_arg_of_pericenter": 182.2836,
        "meta_mean_anomaly": 232.7021,
        "meta_ephemeris_type": 0,
        "meta_classification_type": "U",
        "meta_norad_cat_id": 33881,
        "meta_element_set_no": 999,
        "meta_rev_at_epoch": 87466,
        "meta_bstar": 0.0031971955,
        "meta_mean_motion_dot": 0.00014624,
        "meta_mean_motion_ddot": 0,
        "tle_line1": "1 33881U 97051BA  25344.37731098  .00014624  00000+0  31972-2 0  9991",
        "tle_line2": "2 33881  86.3864 107.7688 0061445 182.2836 232.7021 14.56501004874661"
      },
      "geometry": {
        "type": "Point",
        "coordinates": [
          101.61151796294544,
          -58.53787963164178
        ]
      }
    },
    {
      "type": "Feature",
      "properties": {
        "norad_id": 33884,
        "name": "IRIDIUM 33 DEB",
        "group": "iridium-33-debris",
        "lat": 69.68889694761886,
        "lon": -179.23103227635463,
        "alt_km": 636.2470073830054,
        "timestamp": "2025-12-10T21:43:22.475693+00:00",
        "meta_object_name": "IRIDIUM 33 DEB",
        "meta_object_id": "1997-051BD",
        "meta_epoch": "2025-12-10T08:19:18.691104",
        "meta_mean_motion": 14.77350899,
        "meta_eccentricity": 0.00099408,
        "meta_inclination": 86.3695,
        "meta_ra_of_asc_node": 10.8982,
        "meta_arg_of_pericenter": 332.9342,
        "meta_mean_anomaly": 49.1777,
        "meta_ephemeris_type": 0,
        "meta_classification_type": "U",
        "meta_norad_cat_id": 33884,
        "meta_element_set_no": 999,
        "meta_rev_at_epoch": 88812,
        "meta_bstar": 0.0020634712,
        "meta_mean_motion_dot": 0.00014711,
        "meta_mean_motion_ddot": 0,
        "tle_line1": "1 33884U 97051BD  25344.34674411  .00014711  00000+0  20635-2 0  9997",
        "tle_line2": "2 33884  86.3695  10.8982 0009940 332.9342  49.1777 14.77350899888126"
      },
      "geometry": {
        "type": "Point",
        "coordinates": [
          -179.23103227635463,
          69.68889694761886
        ]
      }
    }
  ]
}